ONEWEB-0403             
1 50483U 21132Q   25116.85837051  .00000043  00000+0  76358-4 0  9990
2 50483  87.9135  58.1962 0002078  82.5632 277.5736 13.18687176166726
ONEWEB-0405             
1 50485U 21132S   25116.87417832  .00000087  00000+0  18904-3 0  9995
2 50485  87.9133  58.1831 0002248  73.4610 286.6769 13.18687220167127
ONEWEB-0406             
1 50486U 21132T   25116.86311138  .00000016  00000+0  80136-5 0  9997
2 50486  87.9140  58.2039 0002281  95.2679 264.8714 13.18687568166752
ONEWEB-0407             
1 50487U 21132U   25116.85678799  .00000041  00000+0  71854-4 0  9990
2 50487  87.9131  58.1925 0002121  76.9323 283.2046 13.18687312166694
ONEWEB-0409             
1 50488U 21132V   25116.90202513 -.00000368  00000+0 -10740-2 0  9993
2 50488  87.8793 104.0209 0002169  94.7955 265.3421 13.11413618161024
ONEWEB-0412             
1 50489U 21132W   25116.84572172 -.00000326  00000+0 -86074-3 0  9996
2 50489  87.9142  58.2100 0002194  66.0176 294.1185 13.18683437166789
ONEWEB-0413             
1 50490U 21132X   25116.85046369  .00000080  00000+0  17097-3 0  9997
2 50490  87.9137  58.2202 0001991  69.6176 290.5170 13.18687610166726
